NORAD_CAT_ID,OBJECT_NAME,OBJECT_TYPE,EPOCH,MEAN_MOTION,ECCENTRICITY,INCLINATION,RA_OF_ASC_NODE,ARG_OF_PERICENTER,MEAN_ANOMALY,BSTAR,MEAN_MOTION_DOT,MEAN_MOTION_DDOT,TLE_LINE0,TLE_LINE1,TLE_LINE2,SEMIMAJOR_AXIS,PERIOD,APOGEE,PERIGEE,DECAYED
55656.0,STARLINK-5326,PAYLOAD,2023-07-05 05:44:01,14.98333206,0.0002985,69.9989,131.2852,271.141,88.9407,-5.1422e-05,-7.07e-06,0.0,0 STARLINK-5326,1 55656U 23021AE  23186.23890083 -.00000707  00000-0 -51422-4 0  9992,2 55656  69.9989 131.2852 0002985 271.1410  88.9407 14.98333206 21931,6950.183,96.107,574.123,569.973,0.0
55656.0,STARLINK-5326,PAYLOAD,2023-07-05 13:44:42,14.98321728,0.0002719,69.9999,130.4447,270.9121,89.1727,-0.00012224,-1.551e-05,0.0,0 STARLINK-5326,1 55656U 23021AE  23186.57271072 -.00001551  00000-0 -12224-3 0  9994,2 55656  69.9999 130.4447 0002719 270.9121  89.1727 14.98321728 21983,6950.218,96.108,573.973,570.194,0.0
55656.0,STARLINK-5326,PAYLOAD,2023-07-06 13:46:43,14.98325823,0.0002888,69.9995,127.919,274.3366,85.7462,-2.5008e-05,-3.91e-06,0.0,0 STARLINK-5326,1 55656U 23021AE  23187.57411030 -.00000391  00000-0 -25008-4 0  9991,2 55656  69.9995 127.9190 0002888 274.3366  85.7462 14.98325823 22137,6950.206,96.107,574.078,570.064,0.0
55656.0,STARLINK-5326,PAYLOAD,2023-07-07 02:35:46,14.9834444,0.0002461,69.9994,126.5722,263.0081,97.0798,-0.00016732,-2.089e-05,0.0,0 STARLINK-5326,1 55656U 23021AE  23188.10818061 -.00002089  00000-0 -16732-3 0  9995,2 55656  69.9994 126.5722 0002461 263.0081  97.0798 14.98344440 22211,6950.148,96.106,573.724,570.303,0.0
55656.0,STARLINK-5326,PAYLOAD,2023-07-07 13:48:43,14.9832496,0.0003032,69.9994,125.3941,274.5411,85.5401,0.0001064,1.177e-05,0.0,0 STARLINK-5326,1 55656U 23021AE  23188.57550385  .00001177  00000-0  10640-3 0  9995,2 55656  69.9994 125.3941 0003032 274.5411  85.5401 14.98324960 22285,6950.208,96.107,574.181,569.966,0.0
55656.0,STARLINK-5326,PAYLOAD,2023-07-08 20:15:17,14.98325275,0.0002962,69.9994,122.196,271.7351,88.3468,-8.512e-05,-1.108e-05,0.0,0 STARLINK-5326,1 55656U 23021AE  23189.84395288 -.00001108  00000-0 -85120-4 0  9997,2 55656  69.9994 122.1960 0002962 271.7351  88.3468 14.98325275 22479,6950.208,96.107,574.131,570.014,0.0
55656.0,STARLINK-5326,PAYLOAD,2023-07-09 12:16:37,14.98329908,0.000289,69.9997,120.5128,274.0343,86.0486,-1.0601e-05,-2.19e-06,0.0,0 STARLINK-5326,1 55656U 23021AE  23190.51154898 -.00000219  00000-0 -10601-4 0  9997,2 55656  69.9997 120.5128 0002890 274.0343  86.0486 14.98329908 22570,6950.193,96.107,574.067,570.05,0.0
55656.0,STARLINK-5326,PAYLOAD,2023-07-10 12:18:38,14.98331766,0.0002945,69.9997,117.9879,271.7046,88.3776,1.4169e-05,7.6e-07,0.0,0 STARLINK-5326,1 55656U 23021AE  23191.51294552  .00000076  00000-0  14169-4 0  9992,2 55656  69.9997 117.9879 0002945 271.7046  88.3776 14.98331766 22727,6950.187,96.107,574.099,570.006,0.0
55656.0,STARLINK-5326,PAYLOAD,2023-07-12 04:21:59,14.98334384,0.0002951,69.9998,113.7806,272.9041,87.1781,-8.6076e-06,-1.96e-06,0.0,0 STARLINK-5326,1 55656U 23021AE  23193.18194411 -.00000196  00000-0 -86076-5 0  9992,2 55656  69.9998 113.7806 0002951 272.9041  87.1781 14.98334384 22976,6950.179,96.107,574.095,569.993,0.0
55656.0,STARLINK-5326,PAYLOAD,2023-07-13 04:24:00,14.98332784,0.0003032,69.9997,111.2552,269.9017,90.1794,3.0683e-05,2.73e-06,0.0,0 STARLINK-5326,1 55656U 23021AE  23194.18334317  .00000273  00000-0  30683-4 0  9990,2 55656  69.9997 111.2552 0003032 269.9017  90.1794 14.98332784 23124,6950.184,96.107,574.157,569.942,0.0
55656.0,STARLINK-5326,PAYLOAD,2023-07-13 22:01:30,14.98327484,0.0003044,69.9997,109.4037,268.9908,91.0902,-5.9645e-05,-8.05e-06,0.0,0 STARLINK-5326,1 55656U 23021AE  23194.91770935 -.00000805  00000-0 -59645-4 0  9993,2 55656  69.9997 109.4037 0003044 268.9908  91.0902 14.98327484 23236,6950.201,96.107,574.181,569.95,0.0
55656.0,STARLINK-5326,PAYLOAD,2023-07-14 17:15:06,14.98330546,0.0003041,69.9996,107.384,268.1772,91.9039,6.3533e-05,6.65e-06,0.0,0 STARLINK-5326,1 55656U 23021AE  23195.71882366  .00000665  00000-0  63533-4 0  9997,2 55656  69.9996 107.3840 0003041 268.1772  91.9039 14.98330546 23358,6950.191,96.107,574.17,569.943,0.0
55656.0,STARLINK-5326,PAYLOAD,2023-07-15 01:15:46,14.98337482,0.0003018,69.9995,106.5423,268.1211,91.9603,0.00013433,1.51e-05,0.0,0 STARLINK-5326,1 55656U 23021AE  23196.05261680  .00001510  00000-0  13433-3 0  9998,2 55656  69.9995 106.5423 0003018 268.1211  91.9603 14.98337482 23406,6950.17,96.107,574.132,569.937,0.0
55656.0,STARLINK-5326,PAYLOAD,2023-07-15 17:17:07,14.98322016,0.0002784,70.0003,104.8587,277.2996,82.7847,1.9108e-05,1.35e-06,0.0,0 STARLINK-5326,1 55656U 23021AE  23196.72022874  .00000135  00000-0  19108-4 0  9990,2 55656  70.0003 104.8587 0002784 277.2996  82.7847 14.98322016 23507,6950.218,96.108,574.018,570.148,0.0
55656.0,STARLINK-5326,PAYLOAD,2023-07-16 02:53:55,14.98327737,0.0003045,69.9993,103.849,268.0913,91.9897,2.5854e-05,2.15e-06,0.0,0 STARLINK-5326,1 55656U 23021AE  23197.12078498  .00000215  00000-0  25854-4 0  9992,2 55656  69.9993 103.8490 0003045 268.0913  91.9897 14.98327737 23560,6950.2,96.107,574.181,569.949,0.0
55656.0,STARLINK-5326,PAYLOAD,2023-07-17 10:56:37,14.98334362,0.0002882,69.9995,100.4822,271.7658,88.3171,-9.033e-05,-1.171e-05,0.0,0 STARLINK-5326,1 55656U 23021AE  23198.45598448 -.00001171  00000-0 -90330-4 0  9996,2 55656  69.9995 100.4822 0002882 271.7658  88.3171 14.98334362 23768,6950.179,96.107,574.047,570.041,0.0
55656.0,STARLINK-5326,PAYLOAD,2023-07-18 18:59:18,14.98326275,0.0002778,70.001,97.1171,273.8621,86.2221,2.0966e-05,1.57e-06,0.0,0 STARLINK-5326,1 55656U 23021AE  23199.79118669  .00000157  00000-0  20966-4 0  9996,2 55656  70.0010  97.1171 0002778 273.8621  86.2221 14.98326275 23964,6950.204,96.107,574.0,570.139,0.0
55656.0,STARLINK-5326,PAYLOAD,2023-07-19 19:01:19,14.98328687,0.0002945,70.0015,94.5955,275.7198,84.3625,-2.996e-05,-4.5e-06,0.0,0 STARLINK-5326,1 55656U 23021AE  23200.79258754 -.00000450  00000-0 -29960-4 0  9990,2 55656  70.0015  94.5955 0002945 275.7198  84.3625 14.98328687 24110,6950.197,96.107,574.109,570.015,0.0
55656.0,STARLINK-5326,PAYLOAD,2023-07-20 19:03:20,14.98328916,0.0002848,70.0,92.0675,263.7257,96.3577,2.8642e-05,2.49e-06,0.0,0 STARLINK-5326,1 55656U 23021AE  23201.79398535  .00000249  00000-0  28642-4 0  9993,2 55656  70.0000  92.0675 0002848 263.7257  96.3577 14.98328916 24261,6950.196,96.107,574.041,570.082,0.0
55656.0,STARLINK-5326,PAYLOAD,2023-07-24 01:33:55,14.98330029,0.0002961,69.9992,83.8179,270.7396,89.3424,-1.1149e-06,-1.06e-06,0.0,0 STARLINK-5326,1 55656U 23021AE  23205.06522329 -.00000106  00000-0 -11149-5 0  9996,2 55656  69.9992  83.8179 0002961 270.7396  89.3424 14.98330029 25052,6950.193,96.107,574.116,570.0,0.0
55656.0,STARLINK-5326,PAYLOAD,2023-07-26 01:37:56,14.98332797,0.0003304,69.9988,78.7683,268.9856,91.0924,3.9247e-05,3.75e-06,0.0,0 STARLINK-5326,1 55656U 23021AE  23207.06801910  .00000375  00000-0  39247-4 0  9998,2 55656  69.9988  78.7683 0003304 268.9856  91.0924 14.98332797 25354,6950.184,96.107,574.346,569.753,0.0
55656.0,STARLINK-5326,PAYLOAD,2023-07-26 20:51:33,14.98334609,0.0003312,69.9988,76.7487,271.387,88.691,4.2531e-05,4.15e-06,0.0,0 STARLINK-5326,1 55656U 23021AE  23207.86913627  .00000415  00000-0  42531-4 0  9990,2 55656  69.9988  76.7487 0003312 271.3870  88.6910 14.98334609 25471,6950.179,96.107,574.346,569.742,0.0
55656.0,STARLINK-5326,PAYLOAD,2023-07-27 01:39:57,14.98338212,0.0003121,69.9991,76.2426,272.0144,88.0658,0.00011116,1.234e-05,0.0,0 STARLINK-5326,1 55656U 23021AE  23208.06941125  .00001234  00000-0  11116-3 0  9991,2 55656  69.9991  76.2426 0003121 272.0144  88.0658 14.98338212 25201,6950.167,96.106,574.202,569.863,0.0
55656.0,STARLINK-5326,PAYLOAD,2023-07-27 08:04:30,14.98329153,0.0002865,69.9988,75.5696,273.5857,86.4975,-1.2941e-05,-2.47e-06,0.0,0 STARLINK-5326,1 55656U 23021AE  23208.33646099 -.00000247  00000-0 -12941-4 0  9996,2 55656  69.9988  75.5696 0002865 273.5857  86.4975 14.98329153 25241,6950.196,96.107,574.052,570.069,0.0
55656.0,STARLINK-5326,PAYLOAD,2023-07-27 19:17:27,14.98318024,0.0002929,69.9991,74.3908,274.3477,85.7348,-7.8259e-05,-1.026e-05,0.0,0 STARLINK-5326,1 55656U 23021AE  23208.80379034 -.00001026  00000-0 -78259-4 0  9990,2 55656  69.9991  74.3908 0002929 274.3477  85.7348 14.98318024 25618,6950.23,96.108,574.131,570.059,0.0
55656.0,STARLINK-5326,PAYLOAD,2023-07-28 00:05:51,14.9832064,0.0003089,69.9997,73.8863,278.9279,81.1531,-2.7607e-05,-4.22e-06,0.0,0 STARLINK-5326,1 55656U 23021AE  23209.00406854 -.00000422  00000-0 -27607-4 0  9994,2 55656  69.9997  73.8863 0003089 278.9279  81.1531 14.98320640 25347,6950.222,96.108,574.234,569.94,0.0
55656.0,STARLINK-5326,PAYLOAD,2023-07-29 00:07:51,14.98336942,0.0003048,69.9989,71.3609,271.7858,88.2952,1.1613e-05,4.6e-07,0.0,0 STARLINK-5326,1 55656U 23021AE  23210.00545635  .00000046  00000-0  11613-4 0  9997,2 55656  69.9989  71.3609 0003048 271.7858  88.2952 14.98336942 25491,6950.171,96.107,574.155,569.918,0.0
55656.0,STARLINK-5326,PAYLOAD,2023-07-29 19:21:28,14.98325558,0.0003141,69.999,69.341,273.601,86.4789,0.00011432,1.271e-05,0.0,0 STARLINK-5326,1 55656U 23021AE  23210.80658044  .00001271  00000-0  11432-3 0  9993,2 55656  69.9990  69.3410 0003141 273.6010  86.4789 14.98325558 25618,6950.207,96.107,574.255,569.889,0.0
55656.0,STARLINK-5326,PAYLOAD,2023-07-31 00:11:53,14.9833056,0.0003175,69.9991,66.3102,270.1859,89.8936,7.0376e-05,7.47e-06,0.0,0 STARLINK-5326,1 55656U 23021AE  23212.00825750  .00000747  00000-0  70376-4 0  9997,2 55656  69.9991  66.3102 0003175 270.1859  89.8936 14.98330560 25793,6950.191,96.107,574.263,569.849,0.0
55656.0,STARLINK-5326,PAYLOAD,2023-08-01 00:13:54,14.98333331,0.0003248,69.9992,63.7858,272.3309,87.7478,2.2194e-05,1.72e-06,0.0,0 STARLINK-5326,1 55656U 23021AE  23213.00965604  .00000172  00000-0  22194-4 0  9998,2 55656  69.9992  63.7858 0003248 272.3309  87.7478 14.98333331 25942,6950.183,96.107,574.305,569.79,0.0
